GLOBALSTAR M067 [+]     
1 32263U 07048A   24005.68041527 -.00000122  00000+0 -17925-3 0  9992
2 32263  51.9719 142.3370 0000211 108.8218 354.8008 12.40636464743886
GLOBALSTAR M070 [+]     
1 32264U 07048B   24005.92521007 -.00000083  00000+0  11492-3 0  9994
2 32264  51.9764 297.7582 0000980  39.4595  74.5369 12.62283999746959
GLOBALSTAR M066 [+]     
1 32265U 07048C   24005.72241059 -.00000082  00000+0  12404-3 0  9992
2 32265  51.9656 160.3991 0001824 124.5338 338.5198 12.62279203749193
GLOBALSTAR M068 [-]     
1 32266U 07048D   24005.68311841 -.00000075  00000+0  15898-3 0  9997
2 32266  51.9884 113.2457 0001453  89.6267  61.6952 12.62775944750783
GLOBALSTAR M079 [+]     
1 37188U 10054A   24005.25206545 -.00000124  00000+0 -11133-3 0  9997
2 37188  52.0062 309.9503 0000364  56.2013 115.7388 12.62270736609658
GLOBALSTAR M074 [+]     
1 37189U 10054B   24006.22328576 -.00000091  00000+0  72415-4 0  9998
2 37189  52.0034 306.3992 0000657  49.5427  97.6984 12.62263723610458
GLOBALSTAR M076 [+]     
1 37190U 10054C   24006.16186413 -.00000095  00000+0  51314-4 0  9994
2 37190  52.0048 306.7123 0000510 350.0775 116.1120 12.62257320610454
GLOBALSTAR M077 [+]     
1 37191U 10054D   24005.90541649 -.00000091  00000+0  72202-4 0  9997
2 37191  52.0068 264.1966 0000929  57.3970  23.0603 12.62268201610437
